start=new Date('2022-02-12T00:00:00.000Z').valueOf();
sats=[{"RA_OF_ASC_NODE":"261.3555","PERIOD":"95.592","DECAY_DATE":null,"ELEMENT_SET_NO":"999","GP_ID":"195759285","MEAN_ELEMENT_THEORY":"SGP4","BSTAR":"-0.00000048858000","COUNTRY_CODE":"US","REV_AT_EPOCH":"9422","SEMIMAJOR_AXIS":"6925.326","CENTER_NAME":"EARTH","TIME_SYSTEM":"UTC","ARG_OF_PERICENTER":"66.8906","INCLINATION":"53.0571","MEAN_MOTION_DDOT":"0.0000000000000","MEAN_MOTION_DOT":"-0.00000289","SITE":"AFETR","TLE_LINE2":"2 45668  53.0571 261.3555 0001700  66.8906 293.2262 15.06407382 94221","APOAPSIS":"548.368","OBJECT_TYPE":"PAYLOAD","OBJECT_ID":"2020-035M","FILE":"3297867","MEAN_MOTION":"15.06407382","REF_FRAME":"TEME","MEAN_ANOMALY":"293.2262","EPOCH":"2022-02-11T19:59:26.907648","PERIAPSIS":"546.014","OBJECT_NAME":"STARLINK-1451","ECCENTRICITY":"0.00017000","LAUNCH_DATE":"2020-06-04","TLE_LINE1":"1 45668U 20035M   22042.83295032 -.00000289  00000-0 -48858-6 0  9991","NORAD_CAT_ID":"45668","CLASSIFICATION_TYPE":"U","EPHEMERIS_TYPE":"0","RCS_SIZE":"LARGE"},{"MEAN_ANOMALY":"297.9122","EPOCH":"2022-02-11T02:03:22.640544","PERIAPSIS":"545.771","OBJECT_NAME":"STARLINK-1452","ECCENTRICITY":"0.00020090","TLE_LINE1":"1 45669U 20035N   22042.08567871  .00008377  00000-0  58032-3 0  9998","LAUNCH_DATE":"2020-06-04","NORAD_CAT_ID":"45669","CLASSIFICATION_TYPE":"U","RCS_SIZE":"LARGE","EPHEMERIS_TYPE":"0","APOAPSIS":"548.553","OBJECT_TYPE":"PAYLOAD","OBJECT_ID":"2020-035N","FILE":"3297735","MEAN_MOTION":"15.06416846","REF_FRAME":"TEME","CENTER_NAME":"EARTH","SEMIMAJOR_AXIS":"6925.297","TIME_SYSTEM":"UTC","ARG_OF_PERICENTER":"62.2071","INCLINATION":"53.0529","MEAN_MOTION_DDOT":"0.0000000000000","MEAN_MOTION_DOT":"0.00008377","SITE":"AFETR","TLE_LINE2":"2 45669  53.0529 264.7316 0002009  62.2071 297.9122 15.06416846 94516","RA_OF_ASC_NODE":"264.7316","PERIOD":"95.591","DECAY_DATE":null,"ELEMENT_SET_NO":"999","GP_ID":"195751129","MEAN_ELEMENT_THEORY":"SGP4","BSTAR":"0.00058032000000","REV_AT_EPOCH":"9451","COUNTRY_CODE":"US"},{"MEAN_MOTION":"15.06401149","REF_FRAME":"TEME","APOAPSIS":"548.376","FILE":"3297735","OBJECT_ID":"2020-035P","OBJECT_TYPE":"PAYLOAD","LAUNCH_DATE":"2020-06-04","TLE_LINE1":"1 45670U 20035P   22042.54180781  .00001653  00000-0  12985-3 0  9999","EPHEMERIS_TYPE":"0","RCS_SIZE":"LARGE","CLASSIFICATION_TYPE":"U","NORAD_CAT_ID":"45670","OBJECT_NAME":"STARLINK-1453","PERIAPSIS":"546.045","ECCENTRICITY":"0.00016830","EPOCH":"2022-02-11T13:00:12.194784","MEAN_ANOMALY":"287.4636","BSTAR":"0.00012985000000","COUNTRY_CODE":"US","REV_AT_EPOCH":"9489","PERIOD":"95.592","DECAY_DATE":null,"RA_OF_ASC_NODE":"232.6851","MEAN_ELEMENT_THEORY":"SGP4","GP_ID":"195751380","ELEMENT_SET_NO":"999","MEAN_MOTION_DDOT":"0.0000000000000","INCLINATION":"53.0550","TLE_LINE2":"2 45670  53.0550 232.6851 0001683  72.6537 287.4636 15.06401149 94894","SITE":"AFETR","MEAN_MOTION_DOT":"0.00001653","CENTER_NAME":"EARTH","SEMIMAJOR_AXIS":"6925.345","ARG_OF_PERICENTER":"72.6537","TIME_SYSTEM":"UTC"},{"TLE_LINE2":"2 45671  53.0528 265.0120 0001629  63.6362 296.4794 15.06412983 94494","SITE":"AFETR","MEAN_MOTION_DOT":"0.00002000","MEAN_MOTION_DDOT":"0.0000000000000","INCLINATION":"53.0528","ARG_OF_PERICENTER":"63.6362","TIME_SYSTEM":"UTC","CENTER_NAME":"EARTH","SEMIMAJOR_AXIS":"6925.309","REV_AT_EPOCH":"9449","COUNTRY_CODE":"US","BSTAR":"0.00015306000000","MEAN_ELEMENT_THEORY":"SGP4","GP_ID":"195750128","ELEMENT_SET_NO":"999","PERIOD":"95.591","DECAY_DATE":null,"RA_OF_ASC_NODE":"265.0120","EPHEMERIS_TYPE":"0","RCS_SIZE":"LARGE","CLASSIFICATION_TYPE":"U","NORAD_CAT_ID":"45671","LAUNCH_DATE":"2020-06-04","TLE_LINE1":"1 45671U 20035Q   22042.02299551  .00002000  00000-0  15306-3 0  9996","PERIAPSIS":"546.046","ECCENTRICITY":"0.00016290","OBJECT_NAME":"STARLINK-1454","MEAN_ANOMALY":"296.4794","EPOCH":"2022-02-11T00:33:06.812064","REF_FRAME":"TEME","MEAN_MOTION":"15.06412983","FILE":"3297735","OBJECT_TYPE":"PAYLOAD","OBJECT_ID":"2020-035Q","APOAPSIS":"548.302"},{"FILE":"3297985","OBJECT_TYPE":"PAYLOAD","OBJECT_ID":"2020-035R","APOAPSIS":"548.403","REF_FRAME":"TEME","MEAN_MOTION":"15.06403882","PERIAPSIS":"546.001","ECCENTRICITY":"0.00017340","OBJECT_NAME":"STARLINK-1455","MEAN_ANOMALY":"286.1170","EPOCH":"2022-02-11T19:54:09.716832","RCS_SIZE":"LARGE","EPHEMERIS_TYPE":"0","CLASSIFICATION_TYPE":"U","NORAD_CAT_ID":"45672","LAUNCH_DATE":"2020-06-04","TLE_LINE1":"1 45672U 20035R   22042.82927913  .00002133  00000-0  16202-3 0  9998","MEAN_ELEMENT_THEORY":"SGP4","GP_ID":"195762064","ELEMENT_SET_NO":"999","PERIOD":"95.592","DECAY_DATE":null,"RA_OF_ASC_NODE":"231.4025","REV_AT_EPOCH":"9463","COUNTRY_CODE":"US","BSTAR":"0.00016202000000","ARG_OF_PERICENTER":"74.0010","TIME_SYSTEM":"UTC","CENTER_NAME":"EARTH","SEMIMAJOR_AXIS":"6925.337","TLE_LINE2":"2 45672  53.0536 231.4025 0001734  74.0010 286.1170 15.06403882 94636","SITE":"AFETR","MEAN_MOTION_DOT":"0.00002133","MEAN_MOTION_DDOT":"0.0000000000000","INCLINATION":"53.0536"},{"SEMIMAJOR_AXIS":"6925.352","CENTER_NAME":"EARTH","ARG_OF_PERICENTER":"60.1586","TIME_SYSTEM":"UTC","INCLINATION":"53.0529","MEAN_MOTION_DDOT":"0.0000000000000","SITE":"AFETR","MEAN_MOTION_DOT":"0.00002262","TLE_LINE2":"2 45673  53.0529 262.5627 0001849  60.1586 299.9587 15.06398948 94598","PERIOD":"95.592","DECAY_DATE":null,"RA_OF_ASC_NODE":"262.5627","GP_ID":"195751630","ELEMENT_SET_NO":"999","MEAN_ELEMENT_THEORY":"SGP4","BSTAR":"0.00017070000000","REV_AT_EPOCH":"9459","COUNTRY_CODE":"US","ECCENTRICITY":"0.00018490","PERIAPSIS":"545.936","OBJECT_NAME":"STARLINK-1456","MEAN_ANOMALY":"299.9587","EPOCH":"2022-02-11T13:38:38.610816","LAUNCH_DATE":"2020-06-04","TLE_LINE1":"1 45673U 20035S   22042.56850244  .00002262  00000-0  17070-3 0  9999","CLASSIFICATION_TYPE":"U","NORAD_CAT_ID":"45673","RCS_SIZE":"LARGE","EPHEMERIS_TYPE":"0","APOAPSIS":"548.497","FILE":"3297735","OBJECT_ID":"2020-035S","OBJECT_TYPE":"PAYLOAD","MEAN_MOTION":"15.06398948","REF_FRAME":"TEME"},{"CENTER_NAME":"EARTH","SEMIMAJOR_AXIS":"6925.273","ARG_OF_PERICENTER":"71.7232","TIME_SYSTEM":"UTC","MEAN_MOTION_DDOT":"0.0000000000000","INCLINATION":"53.0528","TLE_LINE2":"2 45674  53.0528 263.7236 0001829  71.7232 288.3956 15.06424591 94520","SITE":"AFETR","MEAN_MOTION_DOT":"0.00007679","DECAY_DATE":null,"PERIOD":"95.591","RA_OF_ASC_NODE":"263.7236","MEAN_ELEMENT_THEORY":"SGP4","GP_ID":"195751881","ELEMENT_SET_NO":"999","BSTAR":"0.00053352000000","COUNTRY_CODE":"US","REV_AT_EPOCH":"9452","ECCENTRICITY":"0.00018290","PERIAPSIS":"545.872","OBJECT_NAME":"STARLINK-1457","MEAN_ANOMALY":"288.3956","EPOCH":"2022-02-11T07:27:08.266176","LAUNCH_DATE":"2020-06-04","TLE_LINE1":"1 45674U 20035T   22042.31051234  .00007679  00000-0  53352-3 0  9995","RCS_SIZE":"LARGE","EPHEMERIS_TYPE":"0","CLASSIFICATION_TYPE":"U","NORAD_CAT_ID":"45674","APOAPSIS":"548.405","FILE":"3297735","OBJECT_TYPE":"PAYLOAD","OBJECT_ID":"2020-035T","MEAN_MOTION":"15.06424591","REF_FRAME":"TEME"},{"MEAN_ELEMENT_THEORY":"SGP4","ELEMENT_SET_NO":"999","GP_ID":"195759289","RA_OF_ASC_NODE":"261.3838","DECAY_DATE":null,"PERIOD":"95.592","REV_AT_EPOCH":"9421","COUNTRY_CODE":"US","BSTAR":"0.00059391000000","TIME_SYSTEM":"UTC","ARG_OF_PERICENTER":"48.0877","SEMIMAJOR_AXIS":"6925.337","CENTER_NAME":"EARTH","TLE_LINE2":"2 45675  53.0515 261.3838 0002087  48.0877 312.0290 15.06403918 94210","MEAN_MOTION_DOT":"0.00008577","SITE":"AFETR","MEAN_MOTION_DDOT":"0.0000000000000","INCLINATION":"53.0515","OBJECT_TYPE":"PAYLOAD","OBJECT_ID":"2020-035U","FILE":"3297867","APOAPSIS":"548.647","REF_FRAME":"TEME","MEAN_MOTION":"15.06403918","MEAN_ANOMALY":"312.0290","EPOCH":"2022-02-11T19:55:29.661888","OBJECT_NAME":"STARLINK-1458","PERIAPSIS":"545.756","ECCENTRICITY":"0.00020870","EPHEMERIS_TYPE":"0","RCS_SIZE":"LARGE","NORAD_CAT_ID":"45675","CLASSIFICATION_TYPE":"U","TLE_LINE1":"1 45675U 20035U   22042.83020442  .00008577  00000-0  59391-3 0  9997","LAUNCH_DATE":"2020-06-04"},{"REF_FRAME":"TEME","MEAN_MOTION":"15.06412267","FILE":"3297867","OBJECT_TYPE":"PAYLOAD","OBJECT_ID":"2020-035V","APOAPSIS":"548.338","RCS_SIZE":"LARGE","EPHEMERIS_TYPE":"0","CLASSIFICATION_TYPE":"U","NORAD_CAT_ID":"45676","LAUNCH_DATE":"2020-06-04","TLE_LINE1":"1 45676U 20035V   22042.80071520 -.00000888  00000-0 -40676-4 0  9994","ECCENTRICITY":"0.00016780","PERIAPSIS":"546.014","OBJECT_NAME":"STARLINK-1460","EPOCH":"2022-02-11T19:13:01.793280","MEAN_ANOMALY":"302.0322","REV_AT_EPOCH":"9421","COUNTRY_CODE":"US","BSTAR":"-0.00004067600000","MEAN_ELEMENT_THEORY":"SGP4","GP_ID":"195759535","ELEMENT_SET_NO":"999","PERIOD":"95.591","DECAY_DATE":null,"RA_OF_ASC_NODE":"261.5205","TLE_LINE2":"2 45676  53.0537 261.5205 0001678  58.0830 302.0322 15.06412267 94212","SITE":"AFETR","MEAN_MOTION_DOT":"-0.00000888","MEAN_MOTION_DDOT":"0.0000000000000","INCLINATION":"53.0537","ARG_OF_PERICENTER":"58.0830","TIME_SYSTEM":"UTC","CENTER_NAME":"EARTH","SEMIMAJOR_AXIS":"6925.311"},{"BSTAR":"0.00036251000000","COUNTRY_CODE":"US","REV_AT_EPOCH":"9455","RA_OF_ASC_NODE":"263.5682","PERIOD":"95.591","DECAY_DATE":null,"MEAN_ELEMENT_THEORY":"SGP4","ELEMENT_SET_NO":"999","GP_ID":"195751130","MEAN_MOTION_DDOT":"0.0000000000000","INCLINATION":"53.0517","TLE_LINE2":"2 45677  53.0517 263.5682 0001815  53.9247 306.1910 15.06414247 94556","MEAN_MOTION_DOT":"0.00005124","SITE":"AFETR","SEMIMAJOR_AXIS":"6925.305","CENTER_NAME":"EARTH","TIME_SYSTEM":"UTC","ARG_OF_PERICENTER":"53.9247","MEAN_MOTION":"15.06414247","REF_FRAME":"TEME","APOAPSIS":"548.427","OBJECT_ID":"2020-035W","OBJECT_TYPE":"PAYLOAD","FILE":"3297735","TLE_LINE1":"1 45677U 20035W   22042.34735040  .00005124  00000-0  36251-3 0  9997","LAUNCH_DATE":"2020-06-04","RCS_SIZE":"LARGE","EPHEMERIS_TYPE":"0","NORAD_CAT_ID":"45677","CLASSIFICATION_TYPE":"U","EPOCH":"2022-02-11T08:20:11.074560","MEAN_ANOMALY":"306.1910","PERIAPSIS":"545.913","ECCENTRICITY":"0.00018150","OBJECT_NAME":"STARLINK-1392"}];
